{
    "links": {
        "self": "http://www.neowsapp.com/rest/v1/neo/3827429?api_key=iIulBulltgU6a56xZRHN4H3l9WmuAYTsLGpBGhQ2"
    },
    "id": "3827429",
    "neo_reference_id": "3827429",
    "name": "(2018 RY3)",
    "designation": "2018 RY3",
    "nasa_jpl_url": "http://ssd.jpl.nasa.gov/sbdb.cgi?sstr=3827429",
    "absolute_magnitude_h": 25.4,
    "estimated_diameter": {
        "kilometers": {
            "estimated_diameter_min": 0.022108281,
            "estimated_diameter_max": 0.0494356193
        },
        "meters": {
            "estimated_diameter_min": 22.1082810359,
            "estimated_diameter_max": 49.435619262
        },
        "miles": {
            "estimated_diameter_min": 0.0137374447,
            "estimated_diameter_max": 0.0307178602
        },
        "feet": {
            "estimated_diameter_min": 72.5337327539,
            "estimated_diameter_max": 162.1903570994
        }
    },
    "is_potentially_hazardous_asteroid": false,
    "close_approach_data": [
        {
            "close_approach_date": "2018-07-03",
            "close_approach_date_full": "2018-Jul-03 07:53",
            "epoch_date_close_approach": 1530604380000,
            "relative_velocity": {
                "kilometers_per_second": "21.3704331897",
                "kilometers_per_hour": "76933.5594830791",
                "miles_per_hour": "47803.5220021388"
            },
            "miss_distance": {
                "astronomical": "0.1431867011",
                "lunar": "55.6996267279",
                "kilometers": "21420425.496886657",
                "miles": "13310035.2092315866"
            },
            "orbiting_body": "Venus"
        },
        {
            "close_approach_date": "2018-09-08",
            "close_approach_date_full": "2018-Sep-08 10:58",
            "epoch_date_close_approach": 1536404280000,
            "relative_velocity": {
                "kilometers_per_second": "19.7011932189",
                "kilometers_per_hour": "70924.2955880537",
                "miles_per_hour": "44069.5991113659"
            },
            "miss_distance": {
                "astronomical": "0.0113040704",
                "lunar": "4.3972833856",
                "kilometers": "1691064.854170048",
                "miles": "1050778.9751127424"
            },
            "orbiting_body": "Earth"
        },
        {
            "close_approach_date": "2021-09-21",
            "close_approach_date_full": "2021-Sep-21 23:07",
            "epoch_date_close_approach": 1632265620000,
            "relative_velocity": {
                "kilometers_per_second": "27.0415719778",
                "kilometers_per_hour": "97349.6591200058",
                "miles_per_hour": "60489.2923570947"
            },
            "miss_distance": {
                "astronomical": "0.2597236495",
                "lunar": "101.0324996555",
                "kilometers": "38854104.753826565",
                "miles": "24142821.176533997"
            },
            "orbiting_body": "Earth"
        }
    ],
    "orbital_data": {
        "orbit_id": "7",
        "orbit_determination_date": "2019-01-19 07:17:22",
        "first_observation_date": "2018-09-10",
        "last_observation_date": "2018-09-20",
        "data_arc_in_days": 10,
        "observations_used": 71,
        "orbit_uncertainty": "8",
        "minimum_orbit_intersection": ".000362497",
        "jupiter_tisserand_invariant": "3.410",
        "epoch_osculation": "2458376.5",
        "eccentricity": ".6809679557833006",
        "semi_major_axis": "2.098046324481698",
        "inclination": ".2754143120799134",
        "ascending_node_longitude": "340.4546191158784",
        "orbital_period": "1109.995035856389",
        "perihelion_distance": ".6693440077607289",
        "perihelion_argument": "284.1822651626073",
        "aphelion_distance": "3.526748641202668",
        "perihelion_time": "2458323.503885040947",
        "mean_anomaly": "17.18800604413466",
        "mean_motion": ".3243257747745249",
        "equinox": "J2000",
        "orbit_class": {
            "orbit_class_type": "APO",
            "orbit_class_description": "Near-Earth asteroid orbits which cross the Earth’s orbit similar to that of 1862 Apollo",
            "orbit_class_range": "a (semi-major axis) > 1.0 AU; q (perihelion) < 1.017 AU"
        }
    },
    "is_sentry_object": false
}